ONEWEB-0138             
1 47284U 20100AC  26006.27568404  .00000140  00000+0  35399-3 0  9994
2 47284  87.8927  22.8138 0001527  90.0418 270.0885 13.12442717243415
ONEWEB-0139             
1 47285U 20100AD  26006.31647832 -.00000054  00000+0 -18658-3 0  9998
2 47285  87.8922  22.7947 0001712  91.4755 268.6570 13.12443249243496
ONEWEB-0140             
1 47286U 20100AE  26006.27061721  .00000270  00000+0  71449-3 0  9996
2 47286  87.8925  22.7914 0001615  90.2782 269.8531 13.12443110243456
ONEWEB-0141             
1 47287U 20100AF  26006.31618900 -.00000312  00000+0 -90254-3 0  9993
2 47287  87.8924  22.7905 0001886 100.6187 259.5154 13.12444389243446
ONEWEB-0142             
1 47288U 20100AG  26006.30461849 -.00000271  00000+0 -78825-3 0  9995
2 47288  87.8925  22.8167 0001633 105.0772 255.0538 13.12445001243436
ONEWEB-0143             
1 47289U 20100AH  26006.31465123 -.00000039  00000+0 -14428-3 0  9997
2 47289  87.8925  22.8103 0001748  92.3906 267.7423 13.12442344243419
ONEWEB-0144             
1 47290U 20100AJ  26006.28583524 -.00000262  00000+0 -76477-3 0  9991
2 47290  87.8923  22.7845 0001362  97.2382 262.8902 13.12443221243339
ONEWEB-0145             
1 47291U 20100AK  26006.33327793  .00000457  00000+0  12360-2 0  9996
2 47291  87.8926  22.8142 0001645  93.4797 266.6519 13.12443887243532
ONEWEB-0146             
1 47292U 20100AL  26006.10118820  .00000392  00000+0  10544-2 0  9991
2 47292  87.8924  22.8462 0001971  83.6676 276.4677 13.12441441243410
ONEWEB-0147             
1 47293U 20100AM  26006.29599932 -.00000490  00000+0 -13986-2 0  9993
2 47293  87.8926  22.7864 0001549  83.5544 276.5761 13.12442302243335
ONEWEB-0115             
1 48042U 21025A   26006.22214797 -.00000304  00000+0 -86865-3 0  9990
2 48042  87.8996 352.4036 0001761  85.0801 275.0529 13.13468754232332
ONEWEB-0152             
1 48043U 21025B   26006.31187688  .00000098  00000+0  23414-3 0  9998
2 48043  87.8990 352.3905 0001809  82.5998 277.5337 13.13469699232303
ONEWEB-0153             
1 48044U 21025C   26006.21368772 -.00000324  00000+0 -92282-3 0  9996
2 48044  87.8989 352.4168 0001679  87.7113 272.4208 13.13470221232286
ONEWEB-0154             
1 48045U 21025D   26006.21029722 -.00000364  00000+0 -10310-2 0  9991
2 48045  87.8991 352.4139 0001688  83.2533 276.8788 13.13468479232244
ONEWEB-0116             
1 48046U 21025E   26006.24924235  .00000284  00000+0  74398-3 0  9994
2 48046  87.8994 352.3912 0001796  81.1667 278.9666 13.13469537232391
ONEWEB-0150             
1 48047U 21025F   26005.99700076 -.00000148  00000+0 -43983-3 0  9998
2 48047  87.8994 352.4374 0001814  91.4107 268.7230 13.13470631232255
