[{"OBJECT_NAME":"ONEWEB-0138","OBJECT_ID":"2020-100AC","EPOCH":"2026-01-06T06:36:59.101056","MEAN_MOTION":13.12442717,"ECCENTRICITY":0.0001527,"INCLINATION":87.8927,"RA_OF_ASC_NODE":22.8138,"ARG_OF_PERICENTER":90.0418,"MEAN_ANOMALY":270.0885,"EPHEMERIS_TYPE":0,"CLASSIFICATION_TYPE":"U","NORAD_CAT_ID":47284,"ELEMENT_SET_NO":999,"REV_AT_EPOCH":24341,"BSTAR":0.00035398917,"MEAN_MOTION_DOT":1.4e-6,"MEAN_MOTION_DDOT":0},{"OBJECT_NAME":"ONEWEB-0139","OBJECT_ID":"2020-100AD","EPOCH":"2026-01-06T07:35:43.726848","MEAN_MOTION":13.12443249,"ECCENTRICITY":0.00017122,"INCLINATION":87.8922,"RA_OF_ASC_NODE":22.7947,"ARG_OF_PERICENTER":91.4755,"MEAN_ANOMALY":268.657,"EPHEMERIS_TYPE":0,"CLASSIFICATION_TYPE":"U","NORAD_CAT_ID":47285,"ELEMENT_SET_NO":999,"REV_AT_EPOCH":24349,"BSTAR":-0.00018658052,"MEAN_MOTION_DOT":-5.4e-7,"MEAN_MOTION_DDOT":0},{"OBJECT_NAME":"ONEWEB-0140","OBJECT_ID":"2020-100AE","EPOCH":"2026-01-06T06:29:41.326944","MEAN_MOTION":13.1244311,"ECCENTRICITY":0.00016156,"INCLINATION":87.8925,"RA_OF_ASC_NODE":22.7914,"ARG_OF_PERICENTER":90.2782,"MEAN_ANOMALY":269.8531,"EPHEMERIS_TYPE":0,"CLASSIFICATION_TYPE":"U","NORAD_CAT_ID":47286,"ELEMENT_SET_NO":999,"REV_AT_EPOCH":24345,"BSTAR":0.00071449465,"MEAN_MOTION_DOT":2.7e-6,"MEAN_MOTION_DDOT":0},{"OBJECT_NAME":"ONEWEB-0141","OBJECT_ID":"2020-100AF","EPOCH":"2026-01-06T07:35:18.729600","MEAN_MOTION":13.12444389,"ECCENTRICITY":0.00018861,"INCLINATION":87.8924,"RA_OF_ASC_NODE":22.7905,"ARG_OF_PERICENTER":100.6187,"MEAN_ANOMALY":259.5154,"EPHEMERIS_TYPE":0,"CLASSIFICATION_TYPE":"U","NORAD_CAT_ID":47287,"ELEMENT_SET_NO":999,"REV_AT_EPOCH":24344,"BSTAR":-0.00090253565,"MEAN_MOTION_DOT":-3.12e-6,"MEAN_MOTION_DDOT":0},{"OBJECT_NAME":"ONEWEB-0142","OBJECT_ID":"2020-100AG","EPOCH":"2026-01-06T07:18:39.037536","MEAN_MOTION":13.12445001,"ECCENTRICITY":0.00016337,"INCLINATION":87.8925,"RA_OF_ASC_NODE":22.8167,"ARG_OF_PERICENTER":105.0772,"MEAN_ANOMALY":255.0538,"EPHEMERIS_TYPE":0,"CLASSIFICATION_TYPE":"U","NORAD_CAT_ID":47288,"ELEMENT_SET_NO":999,"REV_AT_EPOCH":24343,"BSTAR":-0.00078825142,"MEAN_MOTION_DOT":-2.71e-6,"MEAN_MOTION_DDOT":0},{"OBJECT_NAME":"ONEWEB-0143","OBJECT_ID":"2020-100AH","EPOCH":"2026-01-06T07:33:05.866272","MEAN_MOTION":13.12442344,"ECCENTRICITY":0.00017483,"INCLINATION":87.8925,"RA_OF_ASC_NODE":22.8103,"ARG_OF_PERICENTER":92.3906,"MEAN_ANOMALY":267.7423,"EPHEMERIS_TYPE":0,"CLASSIFICATION_TYPE":"U","NORAD_CAT_ID":47289,"ELEMENT_SET_NO":999,"REV_AT_EPOCH":24341,"BSTAR":-0.00014427509,"MEAN_MOTION_DOT":-3.9e-7,"MEAN_MOTION_DDOT":0},{"OBJECT_NAME":"ONEWEB-0144","OBJECT_ID":"2020-100AJ","EPOCH":"2026-01-06T06:51:36.164736","MEAN_MOTION":13.12443221,"ECCENTRICITY":0.00013622,"INCLINATION":87.8923,"RA_OF_ASC_NODE":22.7845,"ARG_OF_PERICENTER":97.2382,"MEAN_ANOMALY":262.8902,"EPHEMERIS_TYPE":0,"CLASSIFICATION_TYPE":"U","NORAD_CAT_ID":47290,"ELEMENT_SET_NO":999,"REV_AT_EPOCH":24333,"BSTAR":-0.00076477052,"MEAN_MOTION_DOT":-2.62e-6,"MEAN_MOTION_DDOT":0},{"OBJECT_NAME":"ONEWEB-0145","OBJECT_ID":"2020-100AK","EPOCH":"2026-01-06T07:59:55.213152","MEAN_MOTION":13.12443887,"ECCENTRICITY":0.00016456,"INCLINATION":87.8926,"RA_OF_ASC_NODE":22.8142,"ARG_OF_PERICENTER":93.4797,"MEAN_ANOMALY":266.6519,"EPHEMERIS_TYPE":0,"CLASSIFICATION_TYPE":"U","NORAD_CAT_ID":47291,"ELEMENT_SET_NO":999,"REV_AT_EPOCH":24353,"BSTAR":0.0012359664,"MEAN_MOTION_DOT":4.57e-6,"MEAN_MOTION_DDOT":0},{"OBJECT_NAME":"ONEWEB-0146","OBJECT_ID":"2020-100AL","EPOCH":"2026-01-06T02:25:42.660480","MEAN_MOTION":13.12441441,"ECCENTRICITY":0.00019714,"INCLINATION":87.8924,"RA_OF_ASC_NODE":22.8462,"ARG_OF_PERICENTER":83.6676,"MEAN_ANOMALY":276.4677,"EPHEMERIS_TYPE":0,"CLASSIFICATION_TYPE":"U","NORAD_CAT_ID":47292,"ELEMENT_SET_NO":999,"REV_AT_EPOCH":24341,"BSTAR":0.0010544165,"MEAN_MOTION_DOT":3.92e-6,"MEAN_MOTION_DDOT":0},{"OBJECT_NAME":"ONEWEB-0147","OBJECT_ID":"2020-100AM","EPOCH":"2026-01-06T07:06:14.341248","MEAN_MOTION":13.12442302,"ECCENTRICITY":0.00015497,"INCLINATION":87.8926,"RA_OF_ASC_NODE":22.7864,"ARG_OF_PERICENTER":83.5544,"MEAN_ANOMALY":276.5761,"EPHEMERIS_TYPE":0,"CLASSIFICATION_TYPE":"U","NORAD_CAT_ID":47293,"ELEMENT_SET_NO":999,"REV_AT_EPOCH":24333,"BSTAR":-0.0013986032,"MEAN_MOTION_DOT":-4.9e-6,"MEAN_MOTION_DDOT":0},{"OBJECT_NAME":"ONEWEB-0115","OBJECT_ID":"2021-025A","EPOCH":"2026-01-06T05:19:53.584608","MEAN_MOTION":13.13468754,"ECCENTRICITY":0.00017611,"INCLINATION":87.8996,"RA_OF_ASC_NODE":352.4036,"ARG_OF_PERICENTER":85.0801,"MEAN_ANOMALY":275.0529,"EPHEMERIS_TYPE":0,"CLASSIFICATION_TYPE":"U","NORAD_CAT_ID":48042,"ELEMENT_SET_NO":999,"REV_AT_EPOCH":23233,"BSTAR":-0.00086865321,"MEAN_MOTION_DOT":-3.04e-6,"MEAN_MOTION_DDOT":0},{"OBJECT_NAME":"ONEWEB-0152","OBJECT_ID":"2021-025B","EPOCH":"2026-01-06T07:29:06.162432","MEAN_MOTION":13.13469699,"ECCENTRICITY":0.0001809,"INCLINATION":87.899,"RA_OF_ASC_NODE":352.3905,"ARG_OF_PERICENTER":82.5998,"MEAN_ANOMALY":277.5337,"EPHEMERIS_TYPE":0,"CLASSIFICATION_TYPE":"U","NORAD_CAT_ID":48043,"ELEMENT_SET_NO":999,"REV_AT_EPOCH":23230,"BSTAR":0.00023413559,"MEAN_MOTION_DOT":9.8e-7,"MEAN_MOTION_DDOT":0},{"OBJECT_NAME":"ONEWEB-0153","OBJECT_ID":"2021-025C","EPOCH":"2026-01-06T05:07:42.619008","MEAN_MOTION":13.13470221,"ECCENTRICITY":0.00016794,"INCLINATION":87.8989,"RA_OF_ASC_NODE":352.4168,"ARG_OF_PERICENTER":87.7113,"MEAN_ANOMALY":272.4208,"EPHEMERIS_TYPE":0,"CLASSIFICATION_TYPE":"U","NORAD_CAT_ID":48044,"ELEMENT_SET_NO":999,"REV_AT_EPOCH":23228,"BSTAR":-0.00092281723,"MEAN_MOTION_DOT":-3.24e-6,"MEAN_MOTION_DDOT":0},{"OBJECT_NAME":"ONEWEB-0154","OBJECT_ID":"2021-025D","EPOCH":"2026-01-06T05:02:49.679808","MEAN_MOTION":13.13468479,"ECCENTRICITY":0.0001688,"INCLINATION":87.8991,"RA_OF_ASC_NODE":352.4139,"ARG_OF_PERICENTER":83.2533,"MEAN_ANOMALY":276.8788,"EPHEMERIS_TYPE":0,"CLASSIFICATION_TYPE":"U","NORAD_CAT_ID":48045,"ELEMENT_SET_NO":999,"REV_AT_EPOCH":23224,"BSTAR":-0.0010309852,"MEAN_MOTION_DOT":-3.64e-6,"MEAN_MOTION_DDOT":0},{"OBJECT_NAME":"ONEWEB-0116","OBJECT_ID":"2021-025E","EPOCH":"2026-01-06T05:58:54.539040","MEAN_MOTION":13.13469537,"ECCENTRICITY":0.00017967,"INCLINATION":87.8994,"RA_OF_ASC_NODE":352.3912,"ARG_OF_PERICENTER":81.1667,"MEAN_ANOMALY":278.9666,"EPHEMERIS_TYPE":0,"CLASSIFICATION_TYPE":"U","NORAD_CAT_ID":48046,"ELEMENT_SET_NO":999,"REV_AT_EPOCH":23239,"BSTAR":0.00074398114,"MEAN_MOTION_DOT":2.84e-6,"MEAN_MOTION_DDOT":0},{"OBJECT_NAME":"ONEWEB-0150","OBJECT_ID":"2021-025F","EPOCH":"2026-01-05T23:55:40.865664","MEAN_MOTION":13.13470631,"ECCENTRICITY":0.00018147,"INCLINATION":87.8994,"RA_OF_ASC_NODE":352.4374,"ARG_OF_PERICENTER":91.4107,"MEAN_ANOMALY":268.723,"EPHEMERIS_TYPE":0,"CLASSIFICATION_TYPE":"U","NORAD_CAT_ID":48047,"ELEMENT_SET_NO":999,"REV_AT_EPOCH":23225,"BSTAR":-0.00043982636,"MEAN_MOTION_DOT":-1.48e-6,"MEAN_MOTION_DDOT":0}]
